start=new Date('2022-01-13T00:00:00.000Z').valueOf();
sats=[{"TLE_LINE2":"2 49177  69.9994 148.1867 0003882 283.3095 271.1180 15.69767167  3695","SEMIMAJOR_AXIS":"6737.700","TIME_SYSTEM":"UTC","CENTER_NAME":"EARTH","ARG_OF_PERICENTER":"283.3095","TLE_LINE1":"1 49177U 21082AZ  22012.58334491 -.00000219  00000-0 -53254-7 0  9995","DECAY_DATE":null,"RCS_SIZE":"LARGE","CLASSIFICATION_TYPE":"U","ELEMENT_SET_NO":"999","RA_OF_ASC_NODE":"148.1867","COUNTRY_CODE":"US","OBJECT_TYPE":"PAYLOAD","OBJECT_NAME":"STARLINK-3103","EPHEMERIS_TYPE":"0","NORAD_CAT_ID":"49177","MEAN_MOTION_DOT":"-0.00000219","INCLINATION":"69.9994","APOAPSIS":"362.181","GP_ID":"193735115","ECCENTRICITY":"0.00038820","REV_AT_EPOCH":"369","REF_FRAME":"TEME","PERIOD":"91.733","MEAN_MOTION":"15.69767167","FILE":"3270709","OBJECT_ID":"2021-082AZ","EPOCH":"2022-01-12T14:00:01.000224","PERIAPSIS":"356.950","MEAN_MOTION_DDOT":"0.0000000000000","MEAN_ANOMALY":"271.1180","LAUNCH_DATE":"2021-09-14","MEAN_ELEMENT_THEORY":"SGP4","BSTAR":"-0.00000005325400","SITE":"AFWTR"},{"SITE":"AFWTR","BSTAR":"-0.00328560000000","MEAN_ELEMENT_THEORY":"SGP4","LAUNCH_DATE":"2021-09-14","MEAN_ANOMALY":"172.1530","MEAN_MOTION_DDOT":"0.0000000000000","PERIAPSIS":"569.329","EPOCH":"2022-01-12T14:00:01.000224","OBJECT_ID":"2021-082BA","FILE":"3270709","MEAN_MOTION":"14.98361405","PERIOD":"96.105","REF_FRAME":"TEME","REV_AT_EPOCH":"358","ECCENTRICITY":"0.00037870","GP_ID":"193735367","APOAPSIS":"574.593","INCLINATION":"69.9962","MEAN_MOTION_DOT":"-0.00039113","EPHEMERIS_TYPE":"0","OBJECT_TYPE":"PAYLOAD","OBJECT_NAME":"STARLINK-3086","NORAD_CAT_ID":"49178","COUNTRY_CODE":"US","RA_OF_ASC_NODE":"159.6263","ELEMENT_SET_NO":"999","CLASSIFICATION_TYPE":"U","RCS_SIZE":"LARGE","TLE_LINE1":"1 49178U 21082BA  22012.58334491 -.00039113  00000-0 -32856-2 0  9991","DECAY_DATE":null,"ARG_OF_PERICENTER":"281.7840","CENTER_NAME":"EARTH","SEMIMAJOR_AXIS":"6950.096","TIME_SYSTEM":"UTC","TLE_LINE2":"2 49178  69.9962 159.6263 0003787 281.7840 172.1530 14.98361405  3585"},{"BSTAR":"-0.00062387000000","MEAN_ELEMENT_THEORY":"SGP4","SITE":"AFWTR","LAUNCH_DATE":"2021-09-14","MEAN_ANOMALY":"273.3374","MEAN_MOTION_DDOT":"0.0000000000000","EPOCH":"2022-01-12T14:00:01.000224","PERIAPSIS":"357.045","FILE":"3270709","OBJECT_ID":"2021-082BB","PERIOD":"91.731","REF_FRAME":"TEME","MEAN_MOTION":"15.69801021","REV_AT_EPOCH":"369","INCLINATION":"69.9990","MEAN_MOTION_DOT":"-0.00074195","OBJECT_TYPE":"PAYLOAD","EPHEMERIS_TYPE":"0","NORAD_CAT_ID":"49179","OBJECT_NAME":"STARLINK-3043","GP_ID":"193736618","ECCENTRICITY":"0.00035970","APOAPSIS":"361.892","RA_OF_ASC_NODE":"148.1869","COUNTRY_CODE":"US","ELEMENT_SET_NO":"999","RCS_SIZE":"LARGE","CLASSIFICATION_TYPE":"U","DECAY_DATE":null,"TLE_LINE1":"1 49179U 21082BB  22012.58334491 -.00074195  00000-0 -62387-3 0  9994","CENTER_NAME":"EARTH","ARG_OF_PERICENTER":"283.2771","TIME_SYSTEM":"UTC","SEMIMAJOR_AXIS":"6737.603","TLE_LINE2":"2 49179  69.9990 148.1869 0003597 283.2771 273.3374 15.69801021  3695"},{"SEMIMAJOR_AXIS":"6737.622","TIME_SYSTEM":"UTC","TLE_LINE2":"2 49180  69.9995 148.1766 0003567 283.5285 279.4918 15.69794490  3690","TLE_LINE1":"1 49180U 21082BC  22012.58334491 -.00098452  00000-0 -83103-3 0  9997","DECAY_DATE":null,"ARG_OF_PERICENTER":"283.5285","CENTER_NAME":"EARTH","ELEMENT_SET_NO":"999","CLASSIFICATION_TYPE":"U","RCS_SIZE":"LARGE","GP_ID":"193736369","ECCENTRICITY":"0.00035670","APOAPSIS":"361.890","MEAN_MOTION_DOT":"-0.00098452","INCLINATION":"69.9995","OBJECT_NAME":"STARLINK-3050","OBJECT_TYPE":"PAYLOAD","NORAD_CAT_ID":"49180","EPHEMERIS_TYPE":"0","COUNTRY_CODE":"US","RA_OF_ASC_NODE":"148.1766","MEAN_MOTION":"15.69794490","PERIOD":"91.732","REF_FRAME":"TEME","REV_AT_EPOCH":"369","PERIAPSIS":"357.084","EPOCH":"2022-01-12T14:00:01.000224","OBJECT_ID":"2021-082BC","FILE":"3270709","MEAN_ANOMALY":"279.4918","MEAN_MOTION_DDOT":"0.0000000000000","SITE":"AFWTR","BSTAR":"-0.00083103000000","MEAN_ELEMENT_THEORY":"SGP4","LAUNCH_DATE":"2021-09-14"},{"ELEMENT_SET_NO":"999","CLASSIFICATION_TYPE":"U","RCS_SIZE":"LARGE","APOAPSIS":"574.460","ECCENTRICITY":"0.00035340","GP_ID":"193735615","OBJECT_TYPE":"PAYLOAD","EPHEMERIS_TYPE":"0","OBJECT_NAME":"STARLINK-3059","NORAD_CAT_ID":"49181","MEAN_MOTION_DOT":"-0.00038764","INCLINATION":"70.0001","COUNTRY_CODE":"US","RA_OF_ASC_NODE":"159.6165","TIME_SYSTEM":"UTC","SEMIMAJOR_AXIS":"6950.139","TLE_LINE2":"2 49181  70.0001 159.6165 0003534 269.9421 286.8100 14.98347351  3580","DECAY_DATE":null,"TLE_LINE1":"1 49181U 21082BD  22012.58334491 -.00038764  00000-0 -32573-2 0  9992","ARG_OF_PERICENTER":"269.9421","CENTER_NAME":"EARTH","MEAN_ANOMALY":"286.8100","MEAN_MOTION_DDOT":"0.0000000000000","SITE":"AFWTR","MEAN_ELEMENT_THEORY":"SGP4","BSTAR":"-0.00325730000000","LAUNCH_DATE":"2021-09-14","MEAN_MOTION":"14.98347351","REF_FRAME":"TEME","PERIOD":"96.106","REV_AT_EPOCH":"358","PERIAPSIS":"569.548","EPOCH":"2022-01-12T14:00:01.000224","OBJECT_ID":"2021-082BD","FILE":"3270709"},{"TLE_LINE1":"1 49408U 21104A   22012.58334491 -.00660145  00000-0 -24905-1 0  9992","DECAY_DATE":null,"ARG_OF_PERICENTER":"62.2255","CENTER_NAME":"EARTH","SEMIMAJOR_AXIS":"6856.917","TIME_SYSTEM":"UTC","TLE_LINE2":"2 49408  53.2176 200.7584 0001284  62.2255 319.0429 15.29006955  3669","APOAPSIS":"479.662","ECCENTRICITY":"0.00012840","GP_ID":"193736644","OBJECT_TYPE":"PAYLOAD","OBJECT_NAME":"STARLINK-3151","EPHEMERIS_TYPE":"0","NORAD_CAT_ID":"49408","MEAN_MOTION_DOT":"-0.00660145","INCLINATION":"53.2176","COUNTRY_CODE":"US","RA_OF_ASC_NODE":"200.7584","ELEMENT_SET_NO":"999","CLASSIFICATION_TYPE":"U","RCS_SIZE":"LARGE","PERIAPSIS":"477.901","EPOCH":"2022-01-12T14:00:01.000224","OBJECT_ID":"2021-104A","FILE":"3270709","MEAN_MOTION":"15.29006955","REF_FRAME":"TEME","PERIOD":"94.179","REV_AT_EPOCH":"366","SITE":"AFETR","MEAN_ELEMENT_THEORY":"SGP4","BSTAR":"-0.02490500000000","LAUNCH_DATE":"2021-11-13","MEAN_ANOMALY":"319.0429","MEAN_MOTION_DDOT":"0.0000000000000"},{"CLASSIFICATION_TYPE":"U","RCS_SIZE":"LARGE","ELEMENT_SET_NO":"999","COUNTRY_CODE":"US","RA_OF_ASC_NODE":"200.7621","APOAPSIS":"474.736","ECCENTRICITY":"0.00015860","GP_ID":"193736395","OBJECT_TYPE":"PAYLOAD","OBJECT_NAME":"STARLINK-3075","NORAD_CAT_ID":"49409","EPHEMERIS_TYPE":"0","INCLINATION":"53.2177","MEAN_MOTION_DOT":"-0.00658634","TLE_LINE2":"2 49409  53.2177 200.7621 0001586  54.1316 154.1450 15.30725341  3678","SEMIMAJOR_AXIS":"6851.784","TIME_SYSTEM":"UTC","ARG_OF_PERICENTER":"54.1316","CENTER_NAME":"EARTH","DECAY_DATE":null,"TLE_LINE1":"1 49409U 21104B   22012.58334491 -.00658634  00000-0 -23551-1 0  9999","MEAN_MOTION_DDOT":"0.0000000000000","MEAN_ANOMALY":"154.1450","LAUNCH_DATE":"2021-11-13","SITE":"AFETR","MEAN_ELEMENT_THEORY":"SGP4","BSTAR":"-0.02355100000000","REV_AT_EPOCH":"367","MEAN_MOTION":"15.30725341","REF_FRAME":"TEME","PERIOD":"94.073","OBJECT_ID":"2021-104B","FILE":"3270709","PERIAPSIS":"472.562","EPOCH":"2022-01-12T14:00:01.000224"},{"TIME_SYSTEM":"UTC","SEMIMAJOR_AXIS":"6857.588","TLE_LINE2":"2 49410  53.2176 200.7590 0001364  56.2858 296.5698 15.28782377  3665","TLE_LINE1":"1 49410U 21104C   22012.58334491 -.00660097  00000-0 -25076-1 0  9991","DECAY_DATE":null,"ARG_OF_PERICENTER":"56.2858","CENTER_NAME":"EARTH","ELEMENT_SET_NO":"999","CLASSIFICATION_TYPE":"U","RCS_SIZE":"LARGE","APOAPSIS":"480.388","GP_ID":"193735641","ECCENTRICITY":"0.00013640","OBJECT_TYPE":"PAYLOAD","NORAD_CAT_ID":"49410","OBJECT_NAME":"STARLINK-3147","EPHEMERIS_TYPE":"0","INCLINATION":"53.2176","MEAN_MOTION_DOT":"-0.00660097","COUNTRY_CODE":"US","RA_OF_ASC_NODE":"200.7590","MEAN_MOTION":"15.28782377","REF_FRAME":"TEME","PERIOD":"94.193","REV_AT_EPOCH":"366","PERIAPSIS":"478.518","EPOCH":"2022-01-12T14:00:01.000224","OBJECT_ID":"2021-104C","FILE":"3270709","MEAN_ANOMALY":"296.5698","MEAN_MOTION_DDOT":"0.0000000000000","SITE":"AFETR","MEAN_ELEMENT_THEORY":"SGP4","BSTAR":"-0.02507600000000","LAUNCH_DATE":"2021-11-13"},{"MEAN_MOTION":"15.58054202","REF_FRAME":"TEME","PERIOD":"92.423","REV_AT_EPOCH":"370","PERIAPSIS":"392.291","EPOCH":"2022-01-12T14:00:01.000224","OBJECT_ID":"2021-104D","FILE":"3270709","MEAN_ANOMALY":"86.0649","MEAN_MOTION_DDOT":"0.0000000000000","SITE":"AFETR","MEAN_ELEMENT_THEORY":"SGP4","BSTAR":"-0.00930380000000","LAUNCH_DATE":"2021-11-13","TIME_SYSTEM":"UTC","SEMIMAJOR_AXIS":"6771.426","TLE_LINE2":"2 49411  53.2177 196.3057 0001477  47.8249  86.0649 15.58054202  3705","TLE_LINE1":"1 49411U 21104D   22012.58334491 -.00656339  00000-0 -93038-2 0  9990","DECAY_DATE":null,"ARG_OF_PERICENTER":"47.8249","CENTER_NAME":"EARTH","ELEMENT_SET_NO":"999","CLASSIFICATION_TYPE":"U","RCS_SIZE":"LARGE","APOAPSIS":"394.291","ECCENTRICITY":"0.00014770","GP_ID":"193735893","OBJECT_TYPE":"PAYLOAD","NORAD_CAT_ID":"49411","EPHEMERIS_TYPE":"0","OBJECT_NAME":"STARLINK-3162","INCLINATION":"53.2177","MEAN_MOTION_DOT":"-0.00656339","COUNTRY_CODE":"US","RA_OF_ASC_NODE":"196.3057"},{"MEAN_ANOMALY":"157.8602","MEAN_MOTION_DDOT":"0.0000000000000","SITE":"AFETR","MEAN_ELEMENT_THEORY":"SGP4","BSTAR":"-0.02346900000000","LAUNCH_DATE":"2021-11-13","MEAN_MOTION":"15.30840574","REF_FRAME":"TEME","PERIOD":"94.066","REV_AT_EPOCH":"367","PERIAPSIS":"472.297","EPOCH":"2022-01-12T14:00:01.000224","OBJECT_ID":"2021-104E","FILE":"3270709","ELEMENT_SET_NO":"999","CLASSIFICATION_TYPE":"U","RCS_SIZE":"LARGE","APOAPSIS":"474.313","GP_ID":"193736145","ECCENTRICITY":"0.00014710","OBJECT_NAME":"STARLINK-3144","OBJECT_TYPE":"PAYLOAD","EPHEMERIS_TYPE":"0","NORAD_CAT_ID":"49412","MEAN_MOTION_DOT":"-0.00658689","INCLINATION":"53.2177","COUNTRY_CODE":"US","RA_OF_ASC_NODE":"200.7608","SEMIMAJOR_AXIS":"6851.440","TIME_SYSTEM":"UTC","TLE_LINE2":"2 49412  53.2177 200.7608 0001471  63.9179 157.8602 15.30840574  3670","DECAY_DATE":null,"TLE_LINE1":"1 49412U 21104E   22012.58334491 -.00658689  00000-0 -23469-1 0  9991","ARG_OF_PERICENTER":"63.9179","CENTER_NAME":"EARTH"}];
